[{"OBJECT_NAME":"OBJECT C","OBJECT_ID":"2024-203C","EPOCH":"2026-03-08T19:37:32.628864","MEAN_MOTION":15.23715458,"ECCENTRICITY":0.00114765,"INCLINATION":97.4332,"RA_OF_ASC_NODE":137.9023,"ARG_OF_PERICENTER":346.2559,"MEAN_ANOMALY":13.8364,"EPHEMERIS_TYPE":0,"CLASSIFICATION_TYPE":"U","NORAD_CAT_ID":61871,"ELEMENT_SET_NO":999,"REV_AT_EPOCH":7357,"BSTAR":0.00073309113,"MEAN_MOTION_DOT":0.00017593,"MEAN_MOTION_DDOT":0},{"OBJECT_NAME":"COSMOS 1953","OBJECT_ID":"1988-050A","EPOCH":"2026-03-09T18:09:26.993952","MEAN_MOTION":15.28528086,"ECCENTRICITY":0.00124769,"INCLINATION":82.5105,"RA_OF_ASC_NODE":158.18,"ARG_OF_PERICENTER":122.2454,"MEAN_ANOMALY":237.9996,"EPHEMERIS_TYPE":0,"CLASSIFICATION_TYPE":"U","NORAD_CAT_ID":19210,"ELEMENT_SET_NO":999,"REV_AT_EPOCH":3779,"BSTAR":0.00029210954,"MEAN_MOTION_DOT":8.158e-5,"MEAN_MOTION_DDOT":0}]
